{"type": "FeatureCollection", "features": [ {"type": "Feature", "properties": {"norad_id": 58662, "name": "TIANMU-1 21", "group": "weather", "lat": -77.9432548827894, "lon": -109.34316466691898, "alt_km": 474.54872058168075, "timestamp": "2025-12-20T22:39:10.292469+00:00", "meta": {"OBJECT_NAME": "TIANMU-1 21", "OBJECT_ID": "2023-208C", "EPOCH": "2025-12-20T13:40:46.252128", "MEAN_MOTION": 15.31706292, "ECCENTRICITY": 0.00062221, "INCLINATION": 97.4381, "RA_OF_ASC_NODE": 107.9912, "ARG_OF_PERICENTER": 227.2194, "MEAN_ANOMALY": 132.8525, "EPHEMERIS_TYPE": 0, "CLASSIFICATION_TYPE": "U", "NORAD_CAT_ID": 58662, "ELEMENT_SET_NO": 999, "REV_AT_EPOCH": 11019, "BSTAR": 0.00024075055, "MEAN_MOTION_DOT": 7.296e-05, "MEAN_MOTION_DDOT": 0}, "tle": {"line1": "1 58662U 23208C   25354.56997977  .00007296  00000+0  24075-3 0  9994", "line2": "2 58662  97.4381 107.9912 0006222 227.2194 132.8525 15.31706292110193"}}, "geometry": {"type": "Point", "coordinates": [-109.34316466691898, -77.9432548827894]}}, {"type": "Feature", "properties": {"norad_id": 58663, "name": "TIANMU-1 22", "group": "weather", "lat": 64.65919556541661, "lon": 90.00498500627629, "alt_km": 478.20356252281, "timestamp": "2025-12-20T22:39:10.292478+00:00", "meta": {"OBJECT_NAME": "TIANMU-1 22", "OBJECT_ID": "2023-208D", "EPOCH": "2025-12-20T14:30:22.694112", "MEAN_MOTION": 15.27727007, "ECCENTRICITY": 0.00027493, "INCLINATION": 97.4389, "RA_OF_ASC_NODE": 105.6822, "ARG_OF_PERICENTER": 245.3076, "MEAN_ANOMALY": 114.7877, "EPHEMERIS_TYPE": 0, "CLASSIFICATION_TYPE": "U", "NORAD_CAT_ID": 58663, "ELEMENT_SET_NO": 999, "REV_AT_EPOCH": 11003, "BSTAR": 0.00022505685, "MEAN_MOTION_DOT": 6.022e-05, "MEAN_MOTION_DDOT": 0}, "tle": {"line1": "1 58663U 23208D   25354.60442933  .00006022  00000+0  22506-3 0  9990", "line2": "2 58663  97.4389 105.6822 0002749 245.3076 114.7877 15.27727007110031"}}, "geometry": {"type": "Point", "coordinates": [90.00498500627629, 64.65919556541661]}}, {"type": "Feature", "properties": {"norad_id": 58700, "name": "TIANMU-1 15", "group": "weather", "lat": 76.9521758172944, "lon": 30.824754421586153, "alt_km": 488.73846167238844, "timestamp": "2025-12-20T22:39:10.292488+00:00", "meta": {"OBJECT_NAME": "TIANMU-1 15", "OBJECT_ID": "2024-004A", "EPOCH": "2025-12-20T14:20:09.015648", "MEAN_MOTION": 15.24502073, "ECCENTRICITY": 0.00059456, "INCLINATION": 97.4621, "RA_OF_ASC_NODE": 176.0372, "ARG_OF_PERICENTER": 256.7869, "MEAN_ANOMALY": 103.2705, "EPHEMERIS_TYPE": 0, "CLASSIFICATION_TYPE": "U", "NORAD_CAT_ID": 58700, "ELEMENT_SET_NO": 999, "REV_AT_EPOCH": 10854, "BSTAR": 0.00019714118, "MEAN_MOTION_DOT": 4.776e-05, "MEAN_MOTION_DDOT": 0}, "tle": {"line1": "1 58700U 24004A   25354.59732657  .00004776  00000+0  19714-3 0  9991", "line2": "2 58700  97.4621 176.0372 0005945 256.7869 103.2705 15.24502073108548"}}, "geometry": {"type": "Point", "coordinates": [30.824754421586153, 76.9521758172944]}}, {"type": "Feature", "properties": {"norad_id": 58701, "name": "TIANMU-1 16", "group": "weather", "lat": -3.0925241268852486, "lon": -4.641055311116635, "alt_km": 494.95342487281596, "timestamp": "2025-12-20T22:39:10.292498+00:00", "meta": {"OBJECT_NAME": "TIANMU-1 16", "OBJECT_ID": "2024-004B", "EPOCH": "2025-12-20T15:33:04.273632", "MEAN_MOTION": 15.24529894, "ECCENTRICITY": 0.00043259, "INCLINATION": 97.456, "RA_OF_ASC_NODE": 175.4699, "ARG_OF_PERICENTER": 259.9457, "MEAN_ANOMALY": 100.1293, "EPHEMERIS_TYPE": 0, "CLASSIFICATION_TYPE": "U", "NORAD_CAT_ID": 58701, "ELEMENT_SET_NO": 999, "REV_AT_EPOCH": 10855, "BSTAR": 0.00019797376, "MEAN_MOTION_DOT": 4.799e-05, "MEAN_MOTION_DDOT": 0}, "tle": {"line1": "1 58701U 24004B   25354.64796613  .00004799  00000+0  19797-3 0  9996", "line2": "2 58701  97.4560 175.4699 0004325 259.9457 100.1293 15.24529894108554"}}, "geometry": {"type": "Point", "coordinates": [-4.641055311116635, -3.0925241268852486]}}, {"type": "Feature", "properties": {"norad_id": 58702, "name": "TIANMU-1 17", "group": "weather", "lat": -82.44661603111797, "lon": -84.98075268340017, "alt_km": 497.0325188527313, "timestamp": "2025-12-20T22:39:10.292506+00:00", "meta": {"OBJECT_NAME": "TIANMU-1 17", "OBJECT_ID": "2024-004C", "EPOCH": "2025-12-20T15:10:33.742272", "MEAN_MOTION": 15.24573385, "ECCENTRICITY": 0.00035194, "INCLINATION": 97.4595, "RA_OF_ASC_NODE": 175.8685, "ARG_OF_PERICENTER": 262.0546, "MEAN_ANOMALY": 98.0293, "EPHEMERIS_TYPE": 0, "CLASSIFICATION_TYPE": "U", "NORAD_CAT_ID": 58702, "ELEMENT_SET_NO": 999, "REV_AT_EPOCH": 10854, "BSTAR": 0.00018867508, "MEAN_MOTION_DOT": 4.576e-05, "MEAN_MOTION_DDOT": 0}, "tle": {"line1": "1 58702U 24004C   25354.63233498  .00004576  00000+0  18868-3 0  9994", "line2": "2 58702  97.4595 175.8685 0003519 262.0546  98.0293 15.24573385108548"}}, "geometry": {"type": "Point", "coordinates": [-84.98075268340017, -82.44661603111797]}}, {"type": "Feature", "properties": {"norad_id": 58703, "name": "TIANMU-1 18", "group": "weather", "lat": -0.15394199909016473, "lon": 176.3957473261387, "alt_km": 495.5985106460603, "timestamp": "2025-12-20T22:39:10.292517+00:00", "meta": {"OBJECT_NAME": "TIANMU-1 18", "OBJECT_ID": "2024-004D", "EPOCH": "2025-12-20T14:46:38.519904", "MEAN_MOTION": 15.24558035, "ECCENTRICITY": 0.00028648, "INCLINATION": 97.4612, "RA_OF_ASC_NODE": 176.0488, "ARG_OF_PERICENTER": 259.9896, "MEAN_ANOMALY": 100.1019, "EPHEMERIS_TYPE": 0, "CLASSIFICATION_TYPE": "U", "NORAD_CAT_ID": 58703, "ELEMENT_SET_NO": 999, "REV_AT_EPOCH": 10854, "BSTAR": 0.00018217135, "MEAN_MOTION_DOT": 4.414e-05, "MEAN_MOTION_DDOT": 0}, "tle": {"line1": "1 58703U 24004D   25354.61572361  .00004414  00000+0  18217-3 0  9997", "line2": "2 58703  97.4612 176.0488 0002864 259.9896 100.1019 15.24558035108544"}}, "geometry": {"type": "Point", "coordinates": [176.3957473261387, -0.15394199909016473]}}, {"type": "Feature", "properties": {"norad_id": 58990, "name": "INSAT-3DS", "group": "weather", "lat": 0.046023046950271415, "lon": 151.64950483389097, "alt_km": 35788.284406887185, "timestamp": "2025-12-20T22:39:10.292527+00:00", "meta": {"OBJECT_NAME": "INSAT-3DS", "OBJECT_ID": "2024-033A", "EPOCH": "2025-12-20T08:29:05.880192", "MEAN_MOTION": 1.00272266, "ECCENTRICITY": 0.00010792, "INCLINATION": 0.053, "RA_OF_ASC_NODE": 104.8283, "ARG_OF_PERICENTER": 167.2986, "MEAN_ANOMALY": 26.441, "EPHEMERIS_TYPE": 0, "CLASSIFICATION_TYPE": "U", "NORAD_CAT_ID": 58990, "ELEMENT_SET_NO": 999, "REV_AT_EPOCH": 4527, "BSTAR": 0, "MEAN_MOTION_DOT": -1.33e-06, "MEAN_MOTION_DDOT": 0}, "tle": {"line1": "1 58990U 24033A   25354.35354028 -.00000133  00000+0  00000+0 0  9998", "line2": "2 58990   0.0530 104.8283 0001079 167.2986  26.4410  1.00272266 45274"}}, "geometry": {"type": "Point", "coordinates": [151.64950483389097, 0.046023046950271415]}}, {"type": "Feature", "properties": {"norad_id": 59051, "name": "METEOR-M2 4", "group": "weather", "lat": 43.15001927091746, "lon": -56.50645371605793, "alt_km": 811.9343133929515, "timestamp": "2025-12-20T22:39:10.292537+00:00", "meta": {"OBJECT_NAME": "METEOR-M2 4", "OBJECT_ID": "2024-039A", "EPOCH": "2025-12-20T14:00:24.236640", "MEAN_MOTION": 14.22402361, "ECCENTRICITY": 0.00066183, "INCLINATION": 98.6777, "RA_OF_ASC_NODE": 311.3699, "ARG_OF_PERICENTER": 335.4985, "MEAN_ANOMALY": 24.5877, "EPHEMERIS_TYPE": 0, "CLASSIFICATION_TYPE": "U", "NORAD_CAT_ID": 59051, "ELEMENT_SET_NO": 999, "REV_AT_EPOCH": 9387, "BSTAR": 1.7544795e-05, "MEAN_MOTION_DOT": -5e-08, "MEAN_MOTION_DDOT": 0}, "tle": {"line1": "1 59051U 24039A   25354.58361385 -.00000005  00000+0  17545-4 0  9997", "line2": "2 59051  98.6777 311.3699 0006618 335.4985  24.5877 14.22402361 93871"}}, "geometry": {"type": "Point", "coordinates": [-56.50645371605793, 43.15001927091746]}}, {"type": "Feature", "properties": {"norad_id": 60133, "name": "GOES 19", "group": "weather", "lat": 0.00032402738791944804, "lon": -5.63114945623036, "alt_km": 35782.54166387117, "timestamp": "2025-12-20T22:39:10.292547+00:00", "meta": {"OBJECT_NAME": "GOES 19", "OBJECT_ID": "2024-119A", "EPOCH": "2025-12-20T12:49:58.010016", "MEAN_MOTION": 1.00270791, "ECCENTRICITY": 0.00010722, "INCLINATION": 0.0206, "RA_OF_ASC_NODE": 172.9729, "ARG_OF_PERICENTER": 150.4573, "MEAN_ANOMALY": 243.2384, "EPHEMERIS_TYPE": 0, "CLASSIFICATION_TYPE": "U", "NORAD_CAT_ID": 60133, "ELEMENT_SET_NO": 999, "REV_AT_EPOCH": 517, "BSTAR": 0, "MEAN_MOTION_DOT": -2.25e-06, "MEAN_MOTION_DDOT": 0}, "tle": {"line1": "1 60133U 24119A   25354.53469919 -.00000225  00000+0  00000+0 0  9993", "line2": "2 60133   0.0206 172.9729 0001072 150.4573 243.2384  1.00270791  5171"}}, "geometry": {"type": "Point", "coordinates": [-5.63114945623036, 0.00032402738791944804]}}, {"type": "Feature", "properties": {"norad_id": 65815, "name": "FENGYUN 3H", "group": "weather", "lat": -28.80296381470463, "lon": 109.54985208055804, "alt_km": 831.6197983287666, "timestamp": "2025-12-20T22:39:10.292556+00:00", "meta": {"OBJECT_NAME": "FENGYUN 3H", "OBJECT_ID": "2025-219A", "EPOCH": "2025-12-20T11:31:26.875488", "MEAN_MOTION": 14.19906569, "ECCENTRICITY": 7.377e-05, "INCLINATION": 98.6595, "RA_OF_ASC_NODE": 293.9027, "ARG_OF_PERICENTER": 105.2848, "MEAN_ANOMALY": 254.841, "EPHEMERIS_TYPE": 0, "CLASSIFICATION_TYPE": "U", "NORAD_CAT_ID": 65815, "ELEMENT_SET_NO": 999, "REV_AT_EPOCH": 1202, "BSTAR": 3.7480683e-05, "MEAN_MOTION_DOT": 3.6e-07, "MEAN_MOTION_DDOT": 0}, "tle": {"line1": "1 65815U 25219A   25354.48017217  .00000036  00000+0  37481-4 0  9998", "line2": "2 65815  98.6595 293.9027 0000737 105.2848 254.8410 14.19906569 12025"}}, "geometry": {"type": "Point", "coordinates": [109.54985208055804, -28.80296381470463]}}]}